[
    {
        "Altitude(m)": 571214.9865984723,
        "Argument of Periapsis(deg)": 0.0,
        "Eccentricity": 0.0,
        "Inclination(deg)": 97.0,
        "Latitude(deg)": 49.25721353169224,
        "Longitude(deg)": -108.11873057475285,
        "Mean Anomaly(deg)": 49.6552,
        "RAAN(deg)": 0.0,
        "Satellite Name": "Starlink Shell 3 1592",
        "Satellite Number": 1592,
        "Semi-Major Axis(m)": 6938478.169268562,
        "Time(s)": 0
    },
    {
        "Altitude(m)": 571355.8505593557,
        "Argument of Periapsis(deg)": -0.0003965466804030246,
        "Eccentricity": 0.0,
        "Inclination(deg)": 97.0,
        "Latitude(deg)": 49.87161452131001,
        "Longitude(deg)": -108.34062579336381,
        "Mean Anomaly(deg)": 50.28067619770505,
        "RAAN(deg)": 0.00010433427400896087,
        "Satellite Name": "Starlink Shell 3 1592",
        "Satellite Number": 1592,
        "Semi-Major Axis(m)": 6938478.169268562,
        "Time(s)": 10
    },
    {
        "Altitude(m)": 571496.601677003,
        "Argument of Periapsis(deg)": -0.0007930933608060492,
        "Eccentricity": 0.0,
        "Inclination(deg)": 97.0,
        "Latitude(deg)": 50.485655145013304,
        "Longitude(deg)": -108.56714199872854,
        "Mean Anomaly(deg)": 50.90615239541008,
        "RAAN(deg)": 0.00020866854801792175,
        "Satellite Name": "Starlink Shell 3 1592",
        "Satellite Number": 1592,
        "Semi-Major Axis(m)": 6938478.169268562,
        "Time(s)": 20
    },
    {
        "Altitude(m)": 571637.1545263203,
        "Argument of Periapsis(deg)": -0.001189640041209074,
        "Eccentricity": 0.0,
        "Inclination(deg)": 97.0,
        "Latitude(deg)": 51.0993218283962,
        "Longitude(deg)": -108.79850124723018,
        "Mean Anomaly(deg)": 51.53162859311513,
        "RAAN(deg)": 0.0003130028220268826,
        "Satellite Name": "Starlink Shell 3 1592",
        "Satellite Number": 1592,
        "Semi-Major Axis(m)": 6938478.169268562,
        "Time(s)": 30
    },
    {
        "Altitude(m)": 571777.4240488255,
        "Argument of Periapsis(deg)": -0.0015861867216120985,
        "Eccentricity": 0.0,
        "Inclination(deg)": 97.0,
        "Latitude(deg)": 51.712600167088304,
        "Longitude(deg)": -109.03493882261495,
        "Mean Anomaly(deg)": 52.15710479082018,
        "RAAN(deg)": 0.0004173370960358435,
        "Satellite Name": "Starlink Shell 3 1592",
        "Satellite Number": 1592,
        "Semi-Major Axis(m)": 6938478.169268562,
        "Time(s)": 40
    },
    {
        "Altitude(m)": 571917.3255949991,
        "Argument of Periapsis(deg)": -0.0019827334020151234,
        "Eccentricity": 0.0,
        "Inclination(deg)": 97.0,
        "Latitude(deg)": 52.325474857036795,
        "Longitude(deg)": -109.27670532324967,
        "Mean Anomaly(deg)": 52.78258098852521,
        "RAAN(deg)": 0.0005216713700448044,
        "Satellite Name": "Starlink Shell 3 1592",
        "Satellite Number": 1592,
        "Semi-Major Axis(m)": 6938478.169268562,
        "Time(s)": 50
    },
    {
        "Altitude(m)": 572056.7749663856,
        "Argument of Periapsis(deg)": -0.002379280082418148,
        "Eccentricity": 0.0,
        "Inclination(deg)": 97.0,
        "Latitude(deg)": 52.9379296180752,
        "Longitude(deg)": -109.52406733805553,
        "Mean Anomaly(deg)": 53.40805718623026,
        "RAAN(deg)": 0.0006260056440537652,
        "Satellite Name": "Starlink Shell 3 1592",
        "Satellite Number": 1592,
        "Semi-Major Axis(m)": 6938478.169268562,
        "Time(s)": 60
    },
    {
        "Altitude(m)": 572195.6884573437,
        "Argument of Periapsis(deg)": -0.002775826762821173,
        "Eccentricity": 0.0,
        "Inclination(deg)": 97.0,
        "Latitude(deg)": 53.549947110022906,
        "Longitude(deg)": -109.77730823515013,
        "Mean Anomaly(deg)": 54.03353338393531,
        "RAAN(deg)": 0.0007303399180627261,
        "Satellite Name": "Starlink Shell 3 1592",
        "Satellite Number": 1592,
        "Semi-Major Axis(m)": 6938478.169268562,
        "Time(s)": 70
    },
    {
        "Altitude(m)": 572333.9828965483,
        "Argument of Periapsis(deg)": -0.003172373443224197,
        "Eccentricity": 0.0,
        "Inclination(deg)": 97.0,
        "Latitude(deg)": 54.16150884046116,
        "Longitude(deg)": -110.03673058862834,
        "Mean Anomaly(deg)": 54.65900958164035,
        "RAAN(deg)": 0.000834674192071687,
        "Satellite Name": "Starlink Shell 3 1592",
        "Satellite Number": 1592,
        "Semi-Major Axis(m)": 6938478.169268562,
        "Time(s)": 80
    },
    {
        "Altitude(m)": 572471.5756881008,
        "Argument of Periapsis(deg)": -0.0035689201236272223,
        "Eccentricity": 0.0,
        "Inclination(deg)": 97.0,
        "Latitude(deg)": 54.77259506321552,
        "Longitude(deg)": -110.30265723189824,
        "Mean Anomaly(deg)": 55.284485779345395,
        "RAAN(deg)": 0.0009390084660806479,
        "Satellite Name": "Starlink Shell 3 1592",
        "Satellite Number": 1592,
        "Semi-Major Axis(m)": 6938478.169268562,
        "Time(s)": 90
    },
    {
        "Altitude(m)": 572608.384852313,
        "Argument of Periapsis(deg)": -0.003965466804030247,
        "Eccentricity": 0.0,
        "Inclination(deg)": 97.0,
        "Latitude(deg)": 55.38318466644756,
        "Longitude(deg)": -110.57543246641623,
        "Mean Anomaly(deg)": 55.90996197705044,
        "RAAN(deg)": 0.0010433427400896088,
        "Satellite Name": "Starlink Shell 3 1592",
        "Satellite Number": 1592,
        "Semi-Major Axis(m)": 6938478.169268562,
        "Time(s)": 100
    },
    {
        "Altitude(m)": 572744.3290661128,
        "Argument of Periapsis(deg)": -0.004362013484433271,
        "Eccentricity": 0.0,
        "Inclination(deg)": 97.0,
        "Latitude(deg)": 55.99325504911088,
        "Longitude(deg)": -110.85542495675128,
        "Mean Anomaly(deg)": 56.53543817475548,
        "RAAN(deg)": 0.0011476770140985695,
        "Satellite Name": "Starlink Shell 3 1592",
        "Satellite Number": 1592,
        "Semi-Major Axis(m)": 6938478.169268562,
        "Time(s)": 110
    },
    {
        "Altitude(m)": 572879.327703065,
        "Argument of Periapsis(deg)": -0.004758560164836296,
        "Eccentricity": 0.0,
        "Inclination(deg)": 97.0,
        "Latitude(deg)": 56.60278198435063,
        "Longitude(deg)": -111.14302930667886,
        "Mean Anomaly(deg)": 57.160914372460525,
        "RAAN(deg)": 0.0012520112881075304,
        "Satellite Name": "Starlink Shell 3 1592",
        "Satellite Number": 1592,
        "Semi-Major Axis(m)": 6938478.169268562,
        "Time(s)": 120
    },
    {
        "Altitude(m)": 573013.3008729739,
        "Argument of Periapsis(deg)": -0.005155106845239321,
        "Eccentricity": 0.0,
        "Inclination(deg)": 97.0,
        "Latitude(deg)": 57.21173946822945,
        "Longitude(deg)": -111.43866785235346,
        "Mean Anomaly(deg)": 57.78639057016556,
        "RAAN(deg)": 0.0013563455621164913,
        "Satellite Name": "Starlink Shell 3 1592",
        "Satellite Number": 1592,
        "Semi-Major Axis(m)": 6938478.169268562,
        "Time(s)": 130
    },
    {
        "Altitude(m)": 573146.1694610642,
        "Argument of Periapsis(deg)": -0.005551653525642346,
        "Eccentricity": 0.0,
        "Inclination(deg)": 97.0,
        "Latitude(deg)": 57.82009955193536,
        "Longitude(deg)": -111.74279421174758,
        "Mean Anomaly(deg)": 58.411866767870606,
        "RAAN(deg)": 0.0014606798361254522,
        "Satellite Name": "Starlink Shell 3 1592",
        "Satellite Number": 1592,
        "Semi-Major Axis(m)": 6938478.169268562,
        "Time(s)": 140
    },
    {
        "Altitude(m)": 573277.855166734,
        "Argument of Periapsis(deg)": -0.005948200206045371,
        "Eccentricity": 0.0,
        "Inclination(deg)": 97.0,
        "Latitude(deg)": 58.42783215535385,
        "Longitude(deg)": -112.0558955945509,
        "Mean Anomaly(deg)": 59.037342965575654,
        "RAAN(deg)": 0.0015650141101344129,
        "Satellite Name": "Starlink Shell 3 1592",
        "Satellite Number": 1592,
        "Semi-Major Axis(m)": 6938478.169268562,
        "Time(s)": 150
    },
    {
        "Altitude(m)": 573408.2805418316,
        "Argument of Periapsis(deg)": -0.006344746886448394,
        "Eccentricity": 0.0,
        "Inclination(deg)": 97.0,
        "Latitude(deg)": 59.03490485958186,
        "Longitude(deg)": -112.37849541949686,
        "Mean Anomaly(deg)": 59.6628191632807,
        "RAAN(deg)": 0.001669348384143374,
        "Satellite Name": "Starlink Shell 3 1592",
        "Satellite Number": 1592,
        "Semi-Major Axis(m)": 6938478.169268562,
        "Time(s)": 160
    },
    {
        "Altitude(m)": 573537.3690284485,
        "Argument of Periapsis(deg)": -0.00674129356685142,
        "Eccentricity": 0.0,
        "Inclination(deg)": 97.0,
        "Latitude(deg)": 59.64128267559995,
        "Longitude(deg)": -112.71115779088704,
        "Mean Anomaly(deg)": 60.28829536098574,
        "RAAN(deg)": 0.001773682658152335,
        "Satellite Name": "Starlink Shell 3 1592",
        "Satellite Number": 1592,
        "Semi-Major Axis(m)": 6938478.169268562,
        "Time(s)": 170
    },
    {
        "Altitude(m)": 573665.0449962545,
        "Argument of Periapsis(deg)": -0.007137840247254445,
        "Eccentricity": 0.0,
        "Inclination(deg)": 97.0,
        "Latitude(deg)": 60.24692778589199,
        "Longitude(deg)": -113.05449085302413,
        "Mean Anomaly(deg)": 60.91377155869078,
        "RAAN(deg)": 0.0018780169321612958,
        "Satellite Name": "Starlink Shell 3 1592",
        "Satellite Number": 1592,
        "Semi-Major Axis(m)": 6938478.169268562,
        "Time(s)": 180
    }
]